{
    "links": {
        "self": "http://www.neowsapp.com/rest/v1/neo/3831477?api_key=iIulBulltgU6a56xZRHN4H3l9WmuAYTsLGpBGhQ2"
    },
    "id": "3831477",
    "neo_reference_id": "3831477",
    "name": "(2018 TE3)",
    "designation": "2018 TE3",
    "nasa_jpl_url": "http://ssd.jpl.nasa.gov/sbdb.cgi?sstr=3831477",
    "absolute_magnitude_h": 23.8,
    "estimated_diameter": {
        "kilometers": {
            "estimated_diameter_min": 0.046190746,
            "estimated_diameter_max": 0.1032856481
        },
        "meters": {
            "estimated_diameter_min": 46.1907460282,
            "estimated_diameter_max": 103.2856480504
        },
        "miles": {
            "estimated_diameter_min": 0.0287015901,
            "estimated_diameter_max": 0.0641787064
        },
        "feet": {
            "estimated_diameter_min": 151.544447199,
            "estimated_diameter_max": 338.8636855496
        }
    },
    "is_potentially_hazardous_asteroid": false,
    "close_approach_data": [
        {
            "close_approach_date": "2018-10-15",
            "close_approach_date_full": "2018-Oct-15 03:04",
            "epoch_date_close_approach": 1539572640000,
            "relative_velocity": {
                "kilometers_per_second": "7.4280616691",
                "kilometers_per_hour": "26741.0220087651",
                "miles_per_hour": "16615.8311476129"
            },
            "miss_distance": {
                "astronomical": "0.1017012542",
                "lunar": "39.5617878838",
                "kilometers": "15214291.004648554",
                "miles": "9453722.0553718852"
            },
            "orbiting_body": "Earth"
        },
        {
            "close_approach_date": "2172-10-31",
            "close_approach_date_full": "2172-Oct-31 08:54",
            "epoch_date_close_approach": 6400803240000,
            "relative_velocity": {
                "kilometers_per_second": "9.1112780251",
                "kilometers_per_hour": "32800.6008903799",
                "miles_per_hour": "20381.0178143586"
            },
            "miss_distance": {
                "astronomical": "0.2141769343",
                "lunar": "83.3148274427",
                "kilometers": "32040413.174409941",
                "miles": "19908989.5544655458"
            },
            "orbiting_body": "Earth"
        },
        {
            "close_approach_date": "2175-09-17",
            "close_approach_date_full": "2175-Sep-17 21:04",
            "epoch_date_close_approach": 6491653440000,
            "relative_velocity": {
                "kilometers_per_second": "16.3609509013",
                "kilometers_per_hour": "58899.4232448233",
                "miles_per_hour": "36597.811071207"
            },
            "miss_distance": {
                "astronomical": "0.4363138235",
                "lunar": "169.7260773415",
                "kilometers": "65271618.647155945",
                "miles": "40557903.132384241"
            },
            "orbiting_body": "Earth"
        }
    ],
    "orbital_data": {
        "orbit_id": "15",
        "orbit_determination_date": "2018-12-25 06:57:04",
        "first_observation_date": "2018-10-06",
        "last_observation_date": "2018-11-11",
        "data_arc_in_days": 36,
        "observations_used": 97,
        "orbit_uncertainty": "6",
        "minimum_orbit_intersection": ".10181",
        "jupiter_tisserand_invariant": "3.646",
        "epoch_osculation": "2459000.5",
        "eccentricity": ".4622652189303894",
        "semi_major_axis": "2.036479954717449",
        "inclination": "10.60779607214223",
        "ascending_node_longitude": "17.02412623262012",
        "orbital_period": "1061.49667058344",
        "perihelion_distance": "1.095086102602638",
        "perihelion_argument": "11.03181866622808",
        "aphelion_distance": "2.97787380683226",
        "perihelion_time": "2459474.648737346663",
        "mean_anomaly": "199.1954019497973",
        "mean_motion": ".3391437862938656",
        "equinox": "J2000",
        "orbit_class": {
            "orbit_class_type": "AMO",
            "orbit_class_description": "Near-Earth asteroid orbits similar to that of 1221 Amor",
            "orbit_class_range": "1.017 AU < q (perihelion) < 1.3 AU"
        }
    },
    "is_sentry_object": false
}